{
  "type": "FeatureCollection",
  "features": [
    {
      "type": "Feature",
      "properties": {
        "norad_id": 34754,
        "name": "COSMOS 2251 DEB",
        "group": "cosmos-2251-debris",
        "lat": 44.35206019962909,
        "lon": -142.31853428652073,
        "alt_km": 753.356643623224,
        "timestamp": "2025-12-26T21:25:53.404562+00:00",
        "meta_object_name": "COSMOS 2251 DEB",
        "meta_object_id": "1993-036ZY",
        "meta_epoch": "2025-12-26T08:08:28.956192",
        "meta_mean_motion": 14.40499717,
        "meta_eccentricity": 0.0030043,
        "meta_inclination": 74.0288,
        "meta_ra_of_asc_node": 202.4464,
        "meta_arg_of_pericenter": 316.0251,
        "meta_mean_anomaly": 99.8491,
        "meta_ephemeris_type": 0,
        "meta_classification_type": "U",
        "meta_norad_cat_id": 34754,
        "meta_element_set_no": 999,
        "meta_rev_at_epoch": 88329,
        "meta_bstar": 0.0002006581,
        "meta_mean_motion_dot": 6.15e-06,
        "meta_mean_motion_ddot": 0,
        "tle_line1": "1 34754U 93036ZY  25360.33922403  .00000615  00000+0  20066-3 0  9994",
        "tle_line2": "2 34754  74.0288 202.4464 0030043 316.0251  99.8491 14.40499717883290"
      },
      "geometry": {
        "type": "Point",
        "coordinates": [
          -142.31853428652073,
          44.35206019962909
        ]
      }
    },
    {
      "type": "Feature",
      "properties": {
        "norad_id": 34755,
        "name": "COSMOS 2251 DEB",
        "group": "cosmos-2251-debris",
        "lat": -68.25237130733645,
        "lon": 133.5616380842556,
        "alt_km": 809.6343135611696,
        "timestamp": "2025-12-26T21:25:53.404572+00:00",
        "meta_object_name": "COSMOS 2251 DEB",
        "meta_object_id": "1993-036ZZ",
        "meta_epoch": "2025-12-26T12:11:51.713952",
        "meta_mean_motion": 13.50581015,
        "meta_eccentricity": 0.04078432,
        "meta_inclination": 73.9253,
        "meta_ra_of_asc_node": 267.8945,
        "meta_arg_of_pericenter": 285.2929,
        "meta_mean_anomaly": 262.1182,
        "meta_ephemeris_type": 0,
        "meta_classification_type": "U",
        "meta_norad_cat_id": 34755,
        "meta_element_set_no": 999,
        "meta_rev_at_epoch": 82709,
        "meta_bstar": 0.00068245524,
        "meta_mean_motion_dot": 7.11e-06,
        "meta_mean_motion_ddot": 0,
        "tle_line1": "1 34755U 93036ZZ  25360.50823743  .00000711  00000+0  68246-3 0  9990",
        "tle_line2": "2 34755  73.9253 267.8945 0407843 285.2929 262.1182 13.50581015827096"
      },
      "geometry": {
        "type": "Point",
        "coordinates": [
          133.5616380842556,
          -68.25237130733645
        ]
      }
    },
    {
      "type": "Feature",
      "properties": {
        "norad_id": 34756,
        "name": "COSMOS 2251 DEB",
        "group": "cosmos-2251-debris",
        "lat": -63.5475071299891,
        "lon": 45.887243185112254,
        "alt_km": 778.8129862566648,
        "timestamp": "2025-12-26T21:25:53.404582+00:00",
        "meta_object_name": "COSMOS 2251 DEB",
        "meta_object_id": "1993-036AAA",
        "meta_epoch": "2025-12-24T15:18:41.454720",
        "meta_mean_motion": 13.67272702,
        "meta_eccentricity": 0.0345926,
        "meta_inclination": 74.0032,
        "meta_ra_of_asc_node": 84.8024,
        "meta_arg_of_pericenter": 318.0621,
        "meta_mean_anomaly": 39.4462,
        "meta_ephemeris_type": 0,
        "meta_classification_type": "U",
        "meta_norad_cat_id": 34756,
        "meta_element_set_no": 999,
        "meta_rev_at_epoch": 83584,
        "meta_bstar": 0.0010747811,
        "meta_mean_motion_dot": 1.342e-05,
        "meta_mean_motion_ddot": 0,
        "tle_line1": "1 34756U 93036AAA 25358.63797980  .00001342  00000+0  10748-2 0  9999",
        "tle_line2": "2 34756  74.0032  84.8024 0345926 318.0621  39.4462 13.67272702835842"
      },
      "geometry": {
        "type": "Point",
        "coordinates": [
          45.887243185112254,
          -63.5475071299891
        ]
      }
    },
    {
      "type": "Feature",
      "properties": {
        "norad_id": 34758,
        "name": "COSMOS 2251 DEB",
        "group": "cosmos-2251-debris",
        "lat": -61.255069950570594,
        "lon": -114.57331725686996,
        "alt_km": 1101.9217106862488,
        "timestamp": "2025-12-26T21:25:53.404592+00:00",
        "meta_object_name": "COSMOS 2251 DEB",
        "meta_object_id": "1993-036AAC",
        "meta_epoch": "2025-12-25T01:33:06.423552",
        "meta_mean_motion": 13.58115883,
        "meta_eccentricity": 0.03824027,
        "meta_inclination": 74.107,
        "meta_ra_of_asc_node": 279.661,
        "meta_arg_of_pericenter": 40.5031,
        "meta_mean_anomaly": 322.3879,
        "meta_ephemeris_type": 0,
        "meta_classification_type": "U",
        "meta_norad_cat_id": 34758,
        "meta_element_set_no": 999,
        "meta_rev_at_epoch": 83077,
        "meta_bstar": 0.0017795069,
        "meta_mean_motion_dot": 2.058e-05,
        "meta_mean_motion_ddot": 0,
        "tle_line1": "1 34758U 93036AAC 25359.06465768  .00002058  00000+0  17795-2 0  9999",
        "tle_line2": "2 34758  74.1070 279.6610 0382402  40.5031 322.3879 13.58115883830773"
      },
      "geometry": {
        "type": "Point",
        "coordinates": [
          -114.57331725686996,
          -61.255069950570594
        ]
      }
    },
    {
      "type": "Feature",
      "properties": {
        "norad_id": 34760,
        "name": "COSMOS 2251 DEB",
        "group": "cosmos-2251-debris",
        "lat": 71.42578749840672,
        "lon": -24.65346324136027,
        "alt_km": 847.6749124288372,
        "timestamp": "2025-12-26T21:25:53.404603+00:00",
        "meta_object_name": "COSMOS 2251 DEB",
        "meta_object_id": "1993-036AAE",
        "meta_epoch": "2025-12-26T11:28:08.253984",
        "meta_mean_motion": 14.1960414,
        "meta_eccentricity": 0.00973204,
        "meta_inclination": 74.0632,
        "meta_ra_of_asc_node": 277.842,
        "meta_arg_of_pericenter": 326.9633,
        "meta_mean_anomaly": 151.7947,
        "meta_ephemeris_type": 0,
        "meta_classification_type": "U",
        "meta_norad_cat_id": 34760,
        "meta_element_set_no": 999,
        "meta_rev_at_epoch": 86883,
        "meta_bstar": 0.00062410543,
        "meta_mean_motion_dot": 1.356e-05,
        "meta_mean_motion_ddot": 0,
        "tle_line1": "1 34760U 93036AAE 25360.47787331  .00001356  00000+0  62411-3 0  9998",
        "tle_line2": "2 34760  74.0632 277.8420 0097320 326.9633 151.7947 14.19604140868834"
      },
      "geometry": {
        "type": "Point",
        "coordinates": [
          -24.65346324136027,
          71.42578749840672
        ]
      }
    },
    {
      "type": "Feature",
      "properties": {
        "norad_id": 34761,
        "name": "COSMOS 2251 DEB",
        "group": "cosmos-2251-debris",
        "lat": -38.43483241626109,
        "lon": 169.8462617356217,
        "alt_km": 792.9650663277616,
        "timestamp": "2025-12-26T21:25:53.404613+00:00",
        "meta_object_name": "COSMOS 2251 DEB",
        "meta_object_id": "1993-036AAF",
        "meta_epoch": "2025-12-24T04:58:02.700480",
        "meta_mean_motion": 14.38089541,
        "meta_eccentricity": 0.00370278,
        "meta_inclination": 74.0286,
        "meta_ra_of_asc_node": 341.6577,
        "meta_arg_of_pericenter": 12.6034,
        "meta_mean_anomaly": 347.6036,
        "meta_ephemeris_type": 0,
        "meta_classification_type": "U",
        "meta_norad_cat_id": 34761,
        "meta_element_set_no": 999,
        "meta_rev_at_epoch": 87814,
        "meta_bstar": 0.00063419722,
        "meta_mean_motion_dot": 1.911e-05,
        "meta_mean_motion_ddot": 0,
        "tle_line1": "1 34761U 93036AAF 25358.20697570  .00001911  00000+0  63420-3 0  9990",
        "tle_line2": "2 34761  74.0286 341.6577 0037027  12.6034 347.6036 14.38089541878148"
      },
      "geometry": {
        "type": "Point",
        "coordinates": [
          169.8462617356217,
          -38.43483241626109
        ]
      }
    },
    {
      "type": "Feature",
      "properties": {
        "norad_id": 34784,
        "name": "COSMOS 2251 DEB",
        "group": "cosmos-2251-debris",
        "lat": 10.119995460719887,
        "lon": 114.33049942162154,
        "alt_km": 677.9484919116467,
        "timestamp": "2025-12-26T21:25:53.404623+00:00",
        "meta_object_name": "COSMOS 2251 DEB",
        "meta_object_id": "1993-036AAM",
        "meta_epoch": "2025-12-26T05:52:17.901696",
        "meta_mean_motion": 14.60839983,
        "meta_eccentricity": 0.00491034,
        "meta_inclination": 74.0077,
        "meta_ra_of_asc_node": 298.5051,
        "meta_arg_of_pericenter": 103.7988,
        "meta_mean_anomaly": 256.8649,
        "meta_ephemeris_type": 0,
        "meta_classification_type": "U",
        "meta_norad_cat_id": 34784,
        "meta_element_set_no": 999,
        "meta_rev_at_epoch": 88732,
        "meta_bstar": 0.00052478578,
        "meta_mean_motion_dot": 2.579e-05,
        "meta_mean_motion_ddot": 0,
        "tle_line1": "1 34784U 93036AAM 25360.24465164  .00002579  00000+0  52479-3 0  9997",
        "tle_line2": "2 34784  74.0077 298.5051 0049103 103.7988 256.8649 14.60839983887325"
      },
      "geometry": {
        "type": "Point",
        "coordinates": [
          114.33049942162154,
          10.119995460719887
        ]
      }
    }
  ]
}